[{"OBJECT_NAME":"GREENCUBE (IO-117)","OBJECT_ID":"2022-080E","EPOCH":"2026-03-02T17:29:44.105280","MEAN_MOTION":6.42583122,"ECCENTRICITY":0.0009044,"INCLINATION":70.1617,"RA_OF_ASC_NODE":335.2737,"ARG_OF_PERICENTER":313.3588,"MEAN_ANOMALY":46.6318,"EPHEMERIS_TYPE":0,"CLASSIFICATION_TYPE":"U","NORAD_CAT_ID":53109,"ELEMENT_SET_NO":999,"REV_AT_EPOCH":8522,"BSTAR":0,"MEAN_MOTION_DOT":-3.0e-8,"MEAN_MOTION_DDOT":0},{"OBJECT_NAME":"UMKA 1 (RS40S)","OBJECT_ID":"2023-091G","EPOCH":"2026-03-02T18:56:46.413312","MEAN_MOTION":15.19470486,"ECCENTRICITY":0.0014455,"INCLINATION":97.5196,"RA_OF_ASC_NODE":120.9239,"ARG_OF_PERICENTER":127.6813,"MEAN_ANOMALY":232.5735,"EPHEMERIS_TYPE":0,"CLASSIFICATION_TYPE":"U","NORAD_CAT_ID":57172,"ELEMENT_SET_NO":999,"REV_AT_EPOCH":14784,"BSTAR":0.00040013,"MEAN_MOTION_DOT":8.444e-5,"MEAN_MOTION_DDOT":0},{"OBJECT_NAME":"CUBESX-HSE 3 (RS42S)","OBJECT_ID":"2023-091N","EPOCH":"2026-03-02T21:16:05.428416","MEAN_MOTION":15.28350846,"ECCENTRICITY":0.001283,"INCLINATION":97.5226,"RA_OF_ASC_NODE":126.2886,"ARG_OF_PERICENTER":108.6839,"MEAN_ANOMALY":251.5794,"EPHEMERIS_TYPE":0,"CLASSIFICATION_TYPE":"U","NORAD_CAT_ID":57178,"ELEMENT_SET_NO":999,"REV_AT_EPOCH":14817,"BSTAR":0.00058426,"MEAN_MOTION_DOT":0.00016111,"MEAN_MOTION_DDOT":0},{"OBJECT_NAME":"MONITOR-3 (RS58S)","OBJECT_ID":"2023-091Q","EPOCH":"2026-03-02T21:23:44.651328","MEAN_MOTION":15.25529265,"ECCENTRICITY":0.0013756,"INCLINATION":97.522,"RA_OF_ASC_NODE":124.6681,"ARG_OF_PERICENTER":113.3015,"MEAN_ANOMALY":246.9672,"EPHEMERIS_TYPE":0,"CLASSIFICATION_TYPE":"U","NORAD_CAT_ID":57180,"ELEMENT_SET_NO":999,"REV_AT_EPOCH":14807,"BSTAR":0.00052472,"MEAN_MOTION_DOT":0.00013275,"MEAN_MOTION_DDOT":0},{"OBJECT_NAME":"MONITOR-4 (RS57S)","OBJECT_ID":"2023-091S","EPOCH":"2026-03-02T21:02:52.386144","MEAN_MOTION":15.25614079,"ECCENTRICITY":0.001371,"INCLINATION":97.5214,"RA_OF_ASC_NODE":124.6181,"ARG_OF_PERICENTER":113.7533,"MEAN_ANOMALY":246.5144,"EPHEMERIS_TYPE":0,"CLASSIFICATION_TYPE":"U","NORAD_CAT_ID":57182,"ELEMENT_SET_NO":999,"REV_AT_EPOCH":14807,"BSTAR":0.00053463,"MEAN_MOTION_DOT":0.00013562,"MEAN_MOTION_DDOT":0},{"OBJECT_NAME":"MONITOR-2 (RS39S)","OBJECT_ID":"2023-091U","EPOCH":"2026-03-02T21:11:29.827104","MEAN_MOTION":15.17812734,"ECCENTRICITY":0.0012892,"INCLINATION":97.522,"RA_OF_ASC_NODE":120.8613,"ARG_OF_PERICENTER":119.6739,"MEAN_ANOMALY":240.578,"EPHEMERIS_TYPE":0,"CLASSIFICATION_TYPE":"U","NORAD_CAT_ID":57184,"ELEMENT_SET_NO":999,"REV_AT_EPOCH":14782,"BSTAR":0.0003357,"MEAN_MOTION_DOT":6.736e-5,"MEAN_MOTION_DDOT":0},{"OBJECT_NAME":"SVYATOBOR 1 (RS60S)","OBJECT_ID":"2023-091X","EPOCH":"2026-03-02T20:59:47.435712","MEAN_MOTION":15.24631339,"ECCENTRICITY":0.0011254,"INCLINATION":97.5226,"RA_OF_ASC_NODE":125.1885,"ARG_OF_PERICENTER":106.0243,"MEAN_ANOMALY":254.2234,"EPHEMERIS_TYPE":0,"CLASSIFICATION_TYPE":"U","NORAD_CAT_ID":57187,"ELEMENT_SET_NO":999,"REV_AT_EPOCH":14810,"BSTAR":0.00047436,"MEAN_MOTION_DOT":0.00011662,"MEAN_MOTION_DDOT":0},{"OBJECT_NAME":"VIZARD-METEO (RS38S)","OBJECT_ID":"2023-091Z","EPOCH":"2026-03-02T20:13:09.413184","MEAN_MOTION":15.324414,"ECCENTRICITY":0.0009056,"INCLINATION":97.5216,"RA_OF_ASC_NODE":129.4201,"ARG_OF_PERICENTER":93.3547,"MEAN_ANOMALY":266.8731,"EPHEMERIS_TYPE":0,"CLASSIFICATION_TYPE":"U","NORAD_CAT_ID":57189,"ELEMENT_SET_NO":999,"REV_AT_EPOCH":14838,"BSTAR":0.0006484,"MEAN_MOTION_DOT":0.00020287,"MEAN_MOTION_DDOT":0},{"OBJECT_NAME":"NANOZOND 1 (RS49S)","OBJECT_ID":"2023-091AA","EPOCH":"2026-03-02T21:00:16.623360","MEAN_MOTION":15.71591194,"ECCENTRICITY":7.06e-5,"INCLINATION":97.5096,"RA_OF_ASC_NODE":141.5892,"ARG_OF_PERICENTER":75.7521,"MEAN_ANOMALY":284.382,"EPHEMERIS_TYPE":0,"CLASSIFICATION_TYPE":"U","NORAD_CAT_ID":57190,"ELEMENT_SET_NO":999,"REV_AT_EPOCH":14920,"BSTAR":0.0015378,"MEAN_MOTION_DOT":0.00201462,"MEAN_MOTION_DDOT":0},{"OBJECT_NAME":"POLYTECH-UNIVERSE 3 (RS46S)","OBJECT_ID":"2023-091AB","EPOCH":"2026-03-02T20:35:21.547392","MEAN_MOTION":15.17992336,"ECCENTRICITY":0.0017057,"INCLINATION":97.5193,"RA_OF_ASC_NODE":120.3436,"ARG_OF_PERICENTER":136.0441,"MEAN_ANOMALY":224.2152,"EPHEMERIS_TYPE":0,"CLASSIFICATION_TYPE":"U","NORAD_CAT_ID":57191,"ELEMENT_SET_NO":999,"REV_AT_EPOCH":14781,"BSTAR":0.00033832,"MEAN_MOTION_DOT":6.835e-5,"MEAN_MOTION_DDOT":0},{"OBJECT_NAME":"UTMN 2 (RS27S)","OBJECT_ID":"2023-091AP","EPOCH":"2026-03-02T19:59:27.332736","MEAN_MOTION":15.29235227,"ECCENTRICITY":0.0009952,"INCLINATION":97.5218,"RA_OF_ASC_NODE":127.7375,"ARG_OF_PERICENTER":97.6347,"MEAN_ANOMALY":262.6024,"EPHEMERIS_TYPE":0,"CLASSIFICATION_TYPE":"U","NORAD_CAT_ID":57203,"ELEMENT_SET_NO":999,"REV_AT_EPOCH":14827,"BSTAR":0.00057152,"MEAN_MOTION_DOT":0.00016175,"MEAN_MOTION_DDOT":0},{"OBJECT_NAME":"KUZGTU 1 (RS47S)","OBJECT_ID":"2023-091AV","EPOCH":"2026-03-02T20:34:03.192960","MEAN_MOTION":15.27236904,"ECCENTRICITY":0.0012953,"INCLINATION":97.5201,"RA_OF_ASC_NODE":125.3909,"ARG_OF_PERICENTER":111.3688,"MEAN_ANOMALY":248.8935,"EPHEMERIS_TYPE":0,"CLASSIFICATION_TYPE":"U","NORAD_CAT_ID":57217,"ELEMENT_SET_NO":999,"REV_AT_EPOCH":14813,"BSTAR":0.00059685,"MEAN_MOTION_DOT":0.00015911,"MEAN_MOTION_DDOT":0},{"OBJECT_NAME":"SONATE-2","OBJECT_ID":"2024-043Q","EPOCH":"2026-03-02T08:51:24.629184","MEAN_MOTION":15.50669853,"ECCENTRICITY":0.00078456,"INCLINATION":97.5384,"RA_OF_ASC_NODE":205.9504,"ARG_OF_PERICENTER":231.8475,"MEAN_ANOMALY":128.207,"EPHEMERIS_TYPE":0,"CLASSIFICATION_TYPE":"U","NORAD_CAT_ID":59112,"ELEMENT_SET_NO":999,"REV_AT_EPOCH":11129,"BSTAR":0.00074239849,"MEAN_MOTION_DOT":0.00042719,"MEAN_MOTION_DDOT":0},{"OBJECT_NAME":"MESAT1","OBJECT_ID":"2024-125G","EPOCH":"2026-03-02T13:10:36.146208","MEAN_MOTION":15.52835342,"ECCENTRICITY":0.001118,"INCLINATION":97.2465,"RA_OF_ASC_NODE":277.3216,"ARG_OF_PERICENTER":251.3742,"MEAN_ANOMALY":108.6298,"EPHEMERIS_TYPE":0,"CLASSIFICATION_TYPE":"U","NORAD_CAT_ID":60209,"ELEMENT_SET_NO":999,"REV_AT_EPOCH":9296,"BSTAR":0.00074116,"MEAN_MOTION_DOT":0.00046157,"MEAN_MOTION_DDOT":0},{"OBJECT_NAME":"OOV-CUBE (TUBSAT-30)","OBJECT_ID":"2024-128F","EPOCH":"2026-03-02T18:33:50.125248","MEAN_MOTION":15.02184323,"ECCENTRICITY":0.0055105,"INCLINATION":61.9933,"RA_OF_ASC_NODE":236.4815,"ARG_OF_PERICENTER":111.0594,"MEAN_ANOMALY":249.6402,"EPHEMERIS_TYPE":0,"CLASSIFICATION_TYPE":"U","NORAD_CAT_ID":60240,"ELEMENT_SET_NO":999,"REV_AT_EPOCH":9012,"BSTAR":0.00032804,"MEAN_MOTION_DOT":4.271e-5,"MEAN_MOTION_DDOT":0},{"OBJECT_NAME":"COLIBRI-S (RS67S)","OBJECT_ID":"2024-199M","EPOCH":"2026-03-02T19:28:33.600000","MEAN_MOTION":15.43064104,"ECCENTRICITY":0.0008132,"INCLINATION":97.3174,"RA_OF_ASC_NODE":294.9408,"ARG_OF_PERICENTER":315.5285,"MEAN_ANOMALY":44.5309,"EPHEMERIS_TYPE":0,"CLASSIFICATION_TYPE":"U","NORAD_CAT_ID":61746,"ELEMENT_SET_NO":999,"REV_AT_EPOCH":12098,"BSTAR":0.00058452,"MEAN_MOTION_DOT":0.0002581,"MEAN_MOTION_DDOT":0}]
