GREENCUBE (IO-117)      
1 53109U 22080E   26061.72898270 -.00000003  00000+0  00000+0 0  9990
2 53109  70.1617 335.2737 0009044 313.3588  46.6318  6.42583122 85228
UMKA 1 (RS40S)          
1 57172U 23091G   26061.78942608  .00008444  00000+0  40013-3 0  9996
2 57172  97.5196 120.9239 0014455 127.6813 232.5735 15.19470486147840
CUBESX-HSE 3 (RS42S)    
1 57178U 23091N   26061.88617394  .00016111  00000+0  58426-3 0  9991
2 57178  97.5226 126.2886 0012830 108.6839 251.5794 15.28350846148179
MONITOR-3 (RS58S)       
1 57180U 23091Q   26061.89148902  .00013275  00000+0  52472-3 0  9992
2 57180  97.5220 124.6681 0013756 113.3015 246.9672 15.25529265148070
MONITOR-4 (RS57S)       
1 57182U 23091S   26061.87699521  .00013562  00000+0  53463-3 0  9990
2 57182  97.5214 124.6181 0013710 113.7533 246.5144 15.25614079148077
MONITOR-2 (RS39S)       
1 57184U 23091U   26061.88298411  .00006736  00000+0  33570-3 0  9998
2 57184  97.5220 120.8613 0012892 119.6739 240.5780 15.17812734147828
SVYATOBOR 1 (RS60S)     
1 57187U 23091X   26061.87485458  .00011662  00000+0  47436-3 0  9999
2 57187  97.5226 125.1885 0011254 106.0243 254.2234 15.24631339148103
VIZARD-METEO (RS38S)    
1 57189U 23091Z   26061.84247006  .00020287  00000+0  64840-3 0  9994
2 57189  97.5216 129.4201 0009056  93.3547 266.8731 15.32441400148383
NANOZOND 1 (RS49S)      
1 57190U 23091AA  26061.87519240  .00201462  00000+0  15378-2 0  9998
2 57190  97.5096 141.5892 0000706  75.7521 284.3820 15.71591194149206
POLYTECH-UNIVERSE 3 (R*)
1 57191U 23091AB  26061.85788828  .00006835  00000+0  33832-3 0  9990
2 57191  97.5193 120.3436 0017057 136.0441 224.2152 15.17992336147812
UTMN 2 (RS27S)          
1 57203U 23091AP  26061.83295524  .00016175  00000+0  57152-3 0  9997
2 57203  97.5218 127.7375 0009952  97.6347 262.6024 15.29235227148276
KUZGTU 1 (RS47S)        
1 57217U 23091AV  26061.85698140  .00015911  00000+0  59685-3 0  9995
2 57217  97.5201 125.3909 0012953 111.3688 248.8935 15.27236904148130
SONATE-2                
1 59112U 24043Q   26061.36903506  .00042719  00000+0  74240-3 0  9990
2 59112  97.5384 205.9504 0007845 231.8475 128.2070 15.50669853111297
MESAT1                  
1 60209U 24125G   26061.54902947  .00046157  00000+0  74116-3 0  9990
2 60209  97.2465 277.3216 0011180 251.3742 108.6298 15.52835342 92963
OOV-CUBE (TUBSAT-30)    
1 60240U 24128F   26061.77349682  .00004271  00000+0  32804-3 0  9993
2 60240  61.9933 236.4815 0055105 111.0594 249.6402 15.02184323 90129
COLIBRI-S (RS67S)       
1 61746U 24199M   26061.81150000  .00025810  00000+0  58452-3 0  9991
2 61746  97.3174 294.9408 0008132 315.5285  44.5309 15.43064104120989
